<!DOCTYPE HTML PUBLIC "-//W3C//DTD HTML 4.0//EN">
<HTML>
<HEAD>
   <TITLE> Pseudo-MPEC for A03021 </TITLE>
   <META http-equiv=Content-Type content="text/html; charset=windows-1252">
</HEAD>
<BODY>

<P><b>  "Pseudo-MPEC" for A03021 </b></p>
<p><i> Created Fri Jan 29 00:59:13 2010
 using <a href="http://www.projectpluto.com/find_orb.htm">Find_Orb</a></i></p>
<ul>
<li> <a href="#ast"> Astrometry </a> </li>
<li> <a href="#stations"> Observing stations </a> </li>
<li> <a href="#elements"> Orbital elements </a> </li>
<li> <a href="#residuals"> Residuals </a> </li>
<li> <a href="#eph"> Ephemeris </a> </li>
</ul>
<pre>
<a name="ast"></a><b>Astrometry:</b>
<a name="o001"></a><a href="#r001">     A03021 </a> 1C2010 01 22.76218 08 21 26.58 +20 26 00.9          20.1 R      <a href="#stn_300">300</a>
<a name="o002"></a><a href="#r002">     A03021 </a> 1C2010 01 22.76452 08 21 26.47 +20 26 00.6          19.6 R      <a href="#stn_300">300</a>
<a name="o003"></a><a href="#r003">     A03021 </a> 1C2010 01 22.76687 08 21 26.34 +20 26 02.0          19.6 R      <a href="#stn_300">300</a>
<a name="o004"></a><a href="#r004">     A03021 </a> 1C2010 01 22.77156 08 21 26.00 +20 26 02.8          18.1 R      <a href="#stn_300">300</a>
<a name="o005"></a><a href="#r005">     A03021 </a> 1C2010 01 22.77391 08 21 25.93 +20 26 05.1          19.7 R      <a href="#stn_300">300</a>
<a name="o006"></a><a href="#r006">     A03021 </a> 1C2010 01 22.77626 08 21 25.82 +20 26 06.3          20.1 R      <a href="#stn_300">300</a>
<a name="o007"></a><a href="#r007">     A03021 </a> 1C2010 01 22.77860 08 21 25.74 +20 26 06.5          19.9 R      <a href="#stn_300">300</a>
<a name="o008"></a><a href="#r008">     A03021 </a> 1C2010 01 22.78095 08 21 25.71 +20 26 07.3          20.5 R      <a href="#stn_300">300</a>
<a name="o009"></a><a href="#r009">     A03021 </a> 1C2010 01 22.78330 08 21 25.55 +20 26 08.2          20.4 R      <a href="#stn_300">300</a>
<a name="o010"></a><a href="#r010">     A03021 </a> 1C2010 01 22.78565 08 21 25.38 +20 26 09.0          20.0 R      <a href="#stn_300">300</a>
<a name="o011"></a><a href="#r011">     A03021 </a> 1C2010 01 22.78800 08 21 25.32 +20 26 09.7          19.8 R      <a href="#stn_300">300</a>
<a name="o012"></a><a href="#r012">     A03021 </a> 1C2010 01 22.79034 08 21 25.20 +20 26 11.0          20.3 R      <a href="#stn_300">300</a>
<a name="o013"></a><a href="#r013">     A03021 </a> 1C2010 01 22.79503 08 21 24.95 +20 26 13.6          20.0 R      <a href="#stn_300">300</a>
<a name="o014"></a><a href="#r014">     A03021 </a> 1C2010 01 22.79737 08 21 24.76 +20 26 13.9          19.5 R      <a href="#stn_300">300</a>
<a name="o015"></a><a href="#r015">     A03021 </a> 1C2010 01 26.80520 08 18 03.43 +20 52 35.4          20.9 R      <a href="#stn_300">300</a>
<a name="o016"></a><a href="#r016">     A03021 </a> 1C2010 01 26.81069 08 18 03.07 +20 52 38.1          21.2 R      <a href="#stn_300">300</a>
<a name="o017"></a><a href="#r017">     A03021 </a> 1C2010 01 26.81568 08 18 02.83 +20 52 39.7          21.2 R      <a href="#stn_300">300</a>
<a name="o018"></a><a href="#r018">     A03021 </a> 1C2010 01 26.82064 08 18 02.58 +20 52 41.1          21.1 R      <a href="#stn_300">300</a>
<a name="stations"></a>
<b>Station data:
</b><a name="stn_300"></a>(300) <A HREF="http://www.spaceguard.or.jp/">Bisei Spaceguard Center-BATTeRS</a> (<a title="Click for map" href="http://mappoint.msn.com/map.aspx?&amp;C=34.672,133.544&amp;A=1000">N34.67197 E133.54444</a>).
<a name="elements"></a>
<b>Orbital elements:
</b>A03021
   Perihelion 2010 Jan 28.472071 TT = 11:19:46 (JD 2455224.972071)
Epoch 2010 Jan 23.0 TT = JDT 2455219.5   Earth MOID: 0.8584
M 358.64471              (2000.0)            P               Q
n   0.24767299     Peri.    9.12252     -0.57611553     -0.81519653     
a   2.51121337     Node   116.07723      0.74567791     -0.55402324     
e   0.2661706      Incl.    3.80107      0.33474667     -0.16885749     
P   3.98           <a title="Size is probably 400 to 800 meters"
href="http://www.cfa.harvard.edu/iau/lists/Sizes.html">H</a>   19.3     G   0.15   q 1.84280219  Q 3.17962455
From 18 observations 2010 Jan. 22-26;   RMS error 0.870 arcseconds
<a name="residuals"></a>
<b>Residuals in arcseconds:</b>
<a name="r001"></a><a href="#o001">100122</a> <a href="#stn_300">300</a>  .52-  .70+    <a name="r007"></a><a href="#o007">100122</a> <a href="#stn_300">300</a>  .12-  .04-    <a name="r013"></a><a href="#o013">100122</a> <a href="#stn_300">300</a>  .92+  .74+    
<a name="r002"></a><a href="#o002">100122</a> <a href="#stn_300">300</a>  .32-  .50-    <a name="r008"></a><a href="#o008">100122</a> <a href="#stn_300">300</a>  1.2+  .14-    <a name="r014"></a><a href="#o014">100122</a> <a href="#stn_300">300</a>  .03-  .14+    
<a name="r003"></a><a href="#o003">100122</a> <a href="#stn_300">300</a>  .40-  .01-    <a name="r009"></a><a href="#o009">100122</a> <a href="#stn_300">300</a>  .69+  .15-    <a name="r015"></a><a href="#o015">100126</a> <a href="#stn_300">300</a>  .69+  .26-    
<a name="r004"></a><a href="#o004">100122</a> <a href="#stn_300">300</a>  1.7-  1.0-    <a name="r010"></a><a href="#o010">100122</a> <a href="#stn_300">300</a>  .04+  .25-    <a name="r016"></a><a href="#o016">100126</a> <a href="#stn_300">300</a>  .40-  .40+    
<a name="r005"></a><a href="#o005">100122</a> <a href="#stn_300">300</a>  .93-  .37+    <a name="r011"></a><a href="#o011">100122</a> <a href="#stn_300">300</a>  .93+  .46-    <a name="r017"></a><a href="#o017">100126</a> <a href="#stn_300">300</a>  .18-  .15+    
<a name="r006"></a><a href="#o006">100122</a> <a href="#stn_300">300</a>  .73-  .67+    <a name="r012"></a><a href="#o012">100122</a> <a href="#stn_300">300</a>  .97+  .06-    <a name="r018"></a><a href="#o018">100126</a> <a href="#stn_300">300</a>  .13-  .29-    

<a name="eph"></a><b>Ephemerides (500):</b>
Date (UT)    RA              Dec         delta   r     elong mag
---- -- --  ------------   ------------  ------ ------ ----- --- 
2009 10 15  20 49 20.223   -17 00 42.09  .58305 1.3048 108.5 23.9
2009 10 16  20 51 22.379   -16 53 07.31  .58855 1.3047 108.0 23.9
2009 10 17  20 53 25.788   -16 45 21.76  .59407 1.3046 107.5 23.9
2009 10 18  20 55 30.416   -16 37 25.45  .59961 1.3045 107.0 23.9
2009 10 19  20 57 36.228   -16 29 18.37  .60516 1.3044 106.5 24.0
2009 10 20  20 59 43.186   -16 21 00.54  .61074 1.3043 106.1 24.0
2009 10 21  21 01 51.254   -16 12 32.01  .61633 1.3042 105.6 24.0
2009 10 22  21 04 00.393   -16 03 52.81  .62193 1.3041 105.1 24.0
2009 10 23  21 06 10.566   -15 55 02.99  .62755 1.3040 104.7 24.1
2009 10 24  21 08 21.736   -15 46 02.63  .63319 1.3039 104.2 24.1
2009 10 25  21 10 33.864   -15 36 51.80  .63883 1.3038 103.8 24.1
2009 10 26  21 12 46.916   -15 27 30.55  .64449 1.3037 103.4 24.1
2009 10 27  21 15 00.856   -15 17 58.99  .65017 1.3036 102.9 24.1
2009 10 28  21 17 15.649   -15 08 17.18  .65585 1.3035 102.5 24.2
2009 10 29  21 19 31.262   -14 58 25.22  .66155 1.3034 102.1 24.2
2009 10 30  21 21 47.664   -14 48 23.19  .66725 1.3033 101.6 24.2
2009 10 31  21 24 04.821   -14 38 11.18  .67297 1.3032 101.2 24.2
2009 11 01  21 26 22.705   -14 27 49.30  .67870 1.3031 100.8 24.2
2009 11 02  21 28 41.287   -14 17 17.61  .68444 1.3030 100.4 24.3
2009 11 03  21 31 00.540   -14 06 36.23  .69019 1.3029 100.0 24.3
2009 11 04  21 33 20.440   -13 55 45.22  .69595 1.3028  99.6 24.3
2009 11 05  21 35 40.963   -13 44 44.65  .70171 1.3027  99.2 24.3
2009 11 06  21 38 02.091   -13 33 34.61  .70749 1.3026  98.8 24.3
2009 11 07  21 40 23.806   -13 22 15.14  .71328 1.3025  98.4 24.4
2009 11 08  21 42 46.093   -13 10 46.29  .71908 1.3024  98.0 24.4
2009 11 09  21 45 08.938   -12 59 08.12  .72489 1.3023  97.6 24.4
2009 11 10  21 47 32.329   -12 47 20.66  .73071 1.3022  97.2 24.4
2009 11 11  21 49 56.255   -12 35 23.97  .73654 1.3021  96.8 24.4
2009 11 12  21 52 20.705   -12 23 18.10  .74238 1.3020  96.4 24.5
2009 11 13  21 54 45.667   -12 11 03.10  .74823 1.3019  96.0 24.5
2009 11 14  21 57 11.130   -11 58 39.05  .75408 1.3018  95.6 24.5
2009 11 15  21 59 37.083   -11 46 06.03  .75994 1.3016  95.3 24.5
2009 11 16  22 02 03.513   -11 33 24.12  .76581 1.3015  94.9 24.5
2009 11 17  22 04 30.406   -11 20 33.44  .77169 1.3014  94.5 24.5
2009 11 18  22 06 57.749   -11 07 34.09  .77757 1.3013  94.2 24.6
2009 11 19  22 09 25.527   -10 54 26.19  .78346 1.3012  93.8 24.6
2009 11 20  22 11 53.726   -10 41 09.88  .78935 1.3011  93.4 24.6
2009 11 21  22 14 22.331   -10 27 45.30  .79524 1.3010  93.1 24.6
2009 11 22  22 16 51.328   -10 14 12.58  .80114 1.3009  92.7 24.6
2009 11 23  22 19 20.702   -10 00 31.88  .80704 1.3008  92.4 24.6
2009 11 24  22 21 50.439   -09 46 43.35  .81295 1.3007  92.0 24.7
2009 11 25  22 24 20.527   -09 32 47.13  .81885 1.3006  91.6 24.7
2009 11 26  22 26 50.951   -09 18 43.38  .82476 1.3004  91.3 24.7
2009 11 27  22 29 21.698   -09 04 32.26  .83067 1.3003  90.9 24.7
2009 11 28  22 31 52.758   -08 50 13.94  .83658 1.3002  90.6 24.7
2009 11 29  22 34 24.118   -08 35 48.56  .84250 1.3001  90.3 24.7
2009 11 30  22 36 55.767   -08 21 16.29  .84841 1.3000  89.9 24.8
2009 12 01  22 39 27.695   -08 06 37.28  .85432 1.2999  89.6 24.8
2009 12 02  22 41 59.894   -07 51 51.69  .86024 1.2998  89.2 24.8
2009 12 03  22 44 32.356   -07 36 59.66  .86616 1.2997  88.9 24.8
2009 12 04  22 47 05.076   -07 22 01.31  .87208 1.2996  88.6 24.8
2009 12 05  22 49 38.052   -07 06 56.78  .87800 1.2995  88.2 24.8
2009 12 06  22 52 11.281   -06 51 46.17  .88392 1.2994  87.9 24.8
2009 12 07  22 54 44.764   -06 36 29.60  .88984 1.2992  87.6 24.9
2009 12 08  22 57 18.501   -06 21 07.17  .89577 1.2991  87.2 24.9
2009 12 09  22 59 52.495   -06 05 38.99  .90169 1.2990  86.9 24.9
2009 12 10  23 02 26.748   -05 50 05.18  .90762 1.2989  86.6 24.9
2009 12 11  23 05 01.260   -05 34 25.85  .91355 1.2988  86.3 24.9
2009 12 12  23 07 36.034   -05 18 41.12  .91948 1.2987  85.9 24.9
